[{"OBJECT_NAME":"STARLINK-2525","OBJECT_ID":"2021-040BG","EPOCH":"2026-03-09T21:41:38.769216","MEAN_MOTION":15.30214878,"ECCENTRICITY":0.00011336,"INCLINATION":53.1603,"RA_OF_ASC_NODE":192.9438,"ARG_OF_PERICENTER":85.7988,"MEAN_ANOMALY":274.3142,"EPHEMERIS_TYPE":0,"CLASSIFICATION_TYPE":"U","NORAD_CAT_ID":48482,"ELEMENT_SET_NO":999,"REV_AT_EPOCH":26649,"BSTAR":0.00016690381,"MEAN_MOTION_DOT":4.589e-5,"MEAN_MOTION_DDOT":0},{"OBJECT_NAME":"UTMN 2 (RS27S)","OBJECT_ID":"2023-091AP","EPOCH":"2026-03-09T23:09:07.917408","MEAN_MOTION":15.29495965,"ECCENTRICITY":0.00097379,"INCLINATION":97.5194,"RA_OF_ASC_NODE":134.949,"ARG_OF_PERICENTER":76.0788,"MEAN_ANOMALY":284.1534,"EPHEMERIS_TYPE":0,"CLASSIFICATION_TYPE":"U","NORAD_CAT_ID":57203,"ELEMENT_SET_NO":999,"REV_AT_EPOCH":14936,"BSTAR":0.00056135701,"MEAN_MOTION_DOT":0.00016013,"MEAN_MOTION_DDOT":0}]
